ONEWEB-0365             
1 49291U 21090N   26179.63504577 -.00000024  00000+0 -93510-4 0  9998
2 49291  87.9186 302.6867 0001915 102.8011 257.3336 13.19725830227938
ONEWEB-0366             
1 49292U 21090P   26179.54908310 -.00001242  00000+0 -33854-2 0  9998
2 49292  87.8971 287.4423 0001906  96.1688 263.9659 13.14508330229058
ONEWEB-0367             
1 49293U 21090Q   26179.52668901  .00000030  00000+0  42066-4 0  9995
2 49293  87.9198 272.1812 0002053 105.1798 254.9562 13.20772080231329
ONEWEB-0368             
1 49294U 21090R   26179.50058881  .00000068  00000+0  13529-3 0  9996
2 49294  87.9186 272.1954 0001298  98.9958 261.1322 13.20771405232472
ONEWEB-0369             
1 49295U 21090S   26179.63030918  .00000005  00000+0 -19182-4 0  9996
2 49295  87.9177 302.6943 0001837 101.3953 258.7386 13.19725818227924
ONEWEB-0370             
1 49296U 21090T   26179.53594310 -.00000020  00000+0 -80688-4 0  9994
2 49296  87.9198 272.1789 0002282 101.3255 258.8135 13.20770715231361
ONEWEB-0371             
1 49297U 21090U   26179.33492260  .00000030  00000+0  41580-4 0  9991
2 49297  87.9186 302.7463 0001969 102.8303 257.3050 13.19724619227926
ONEWEB-0372             
1 49298U 21090V   26179.52569760  .00000034  00000+0  50530-4 0  9992
2 49298  87.9196 272.1825 0002005 100.3560 259.7800 13.20773095231333
ONEWEB-0373             
1 49299U 21090W   26179.62684889 -.00000140  00000+0 -37636-3 0  9995
2 49299  87.9194 272.1625 0002073  98.4490 261.6878 13.20771599232531
ONEWEB-0374             
1 49300U 21090X   26179.53639414  .00000586  00000+0  15458-2 0  9991
2 49300  87.8971 287.4350 0001549  74.9423 285.1878 13.14501159229052
ONEWEB-0375             
1 49301U 21090Y   26179.53931009  .00000015  00000+0  61362-5 0  9992
2 49301  87.9195 272.1719 0002047  83.2886 276.8480 13.20772667232020
ONEWEB-0376             
1 49302U 21090Z   26179.63662042 -.00000111  00000+0 -31076-3 0  9998
2 49302  87.9185 302.6862 0001826 105.4194 254.7141 13.19725586227963
ONEWEB-0377             
1 49303U 21090AA  26179.29869798  .00000043  00000+0  73169-4 0  9990
2 49303  87.9197 272.2216 0002133  93.7138 266.4240 13.20772698231986
ONEWEB-0378             
1 49304U 21090AB  26179.62194057 -.00000032  00000+0 -10977-3 0  9994
2 49304  87.9192 272.1617 0001929  96.7981 263.3372 13.20771095231293
ONEWEB-0379             
1 49305U 21090AC  26179.53163669  .00000060  00000+0  12648-3 0  9996
2 49305  87.8973 287.4474 0001866  97.8603 262.2739 13.14503316229051
ONEWEB-0380             
1 49306U 21090AD  26179.63347116 -.00000047  00000+0 -14850-3 0  9993
2 49306  87.9178 302.6913 0002066  95.6076 264.5293 13.19725643227930
ONEWEB-0381             
1 49307U 21090AE  26179.52246863  .00000117  00000+0  25671-3 0  9998
2 49307  87.9198 272.1820 0001972  92.0564 268.0795 13.20772845231321
ONEWEB-0382             
1 49308U 21090AF  26179.50900548  .00000044  00000+0  77390-4 0  9999
2 49308  87.9196 272.1786 0001855  92.3719 267.7627 13.20771598231319
ONEWEB-0383             
1 49309U 21090AG  26179.52529730  .00000176  00000+0  43914-3 0  9992
2 49309  87.8975 287.4405 0001817  97.7351 262.3985 13.14502077229086
ONEWEB-0384             
1 49310U 21090AH  26179.49728998  .00000018  00000+0  11315-4 0  9993
2 49310  87.9197 272.2247 0001699  88.8026 271.3302 13.20813394231326
ONEWEB-0385             
1 49311U 21090AJ  26179.50226021  .00000090  00000+0  18828-3 0  9991
2 49311  87.9196 272.1852 0001936  94.5252 265.6102 13.20773863231292
ONEWEB-0386             
1 49312U 21090AK  26179.51910624 -.00000001  00000+0 -35218-4 0  9999
2 49312  87.9201 272.1734 0001842  94.3728 265.7616 13.20772212231312
ONEWEB-0387             
1 49313U 21090AL  26179.50394637  .00000127  00000+0  28004-3 0  9990
2 49313  87.9186 272.1970 0002236  91.3543 268.7847 13.20773619231318
ONEWEB-0388             
1 49314U 21090AM  26179.62873020  .00000077  00000+0  16089-3 0  9996
2 49314  87.9179 302.6903 0001852  96.5290 263.6053 13.19726461227921
ONEWEB-0389             
1 50469U 21132A   26179.58914297  .00000072  00000+0  15176-3 0  9994
2 50469  87.9133   3.5993 0002005  80.1378 279.9980 13.17649819219588
ONEWEB-0390             
1 50470U 21132B   26179.59083089  .00000082  00000+0  17892-3 0  9991
2 50470  87.9133   3.5999 0002053  92.8899 267.2467 13.17649543219581
ONEWEB-0391             
1 50471U 21132C   26179.51658294  .00000009  00000+0 -10400-4 0  9999
2 50471  87.9134   3.6244 0002543  76.9359 283.2056 13.17649544219577
ONEWEB-0392             
1 50472U 21132D   26179.54696293  .00000052  00000+0  10011-3 0  9998
2 50472  87.9141   3.5877 0002090  80.2368 279.9000 13.17649637219611
ONEWEB-0393             
1 50473U 21132E   26179.52247812  .00000059  00000+0  11759-3 0  9993
2 50473  87.9132   3.6085 0001957  84.8890 275.2465 13.17650739219603
ONEWEB-0394             
1 50474U 21132F   26179.47957943 -.00000004  00000+0 -44026-4 0  9997
2 50474  87.9178 333.1956 0001745  91.2536 268.8796 13.18688241223088
