OBJECT_NAME,OBJECT_ID,EPOCH,MEAN_MOTION,ECCENTRICITY,INCLINATION,RA_OF_ASC_NODE,ARG_OF_PERICENTER,MEAN_ANOMALY,EPHEMERIS_TYPE,CLASSIFICATION_TYPE,NORAD_CAT_ID,ELEMENT_SET_NO,REV_AT_EPOCH,BSTAR,MEAN_MOTION_DOT,MEAN_MOTION_DDOT
ONEWEB-0365,2021-090N,2026-06-28T15:14:27.954528,13.19725830,.00019159,87.9186,302.6867,102.8011,257.3336,0,U,49291,999,22793,-.93509573E-4,-.24E-6,0
ONEWEB-0366,2021-090P,2026-06-28T13:10:40.779840,13.14508330,.00019068,87.8971,287.4423,96.1688,263.9659,0,U,49292,999,22905,-.33854466E-2,-.1242E-4,0
ONEWEB-0367,2021-090Q,2026-06-28T12:38:25.930464,13.20772080,.00020532,87.9198,272.1812,105.1798,254.9562,0,U,49293,999,23132,.42065658E-4,.3E-6,0
ONEWEB-0368,2021-090R,2026-06-28T12:00:50.873184,13.20771405,.00012983,87.9186,272.1954,98.9958,261.1322,0,U,49294,999,23247,.13528782E-3,.68E-6,0
ONEWEB-0369,2021-090S,2026-06-28T15:07:38.713152,13.19725818,.00018377,87.9177,302.6943,101.3953,258.7386,0,U,49295,999,22792,-.19182255E-4,.5E-7,0
ONEWEB-0370,2021-090T,2026-06-28T12:51:45.483840,13.20770715,.00022826,87.9198,272.1789,101.3255,258.8135,0,U,49296,999,23136,-.80687899E-4,-.2E-6,0
ONEWEB-0371,2021-090U,2026-06-28T08:02:17.312640,13.19724619,.00019698,87.9186,302.7463,102.8303,257.3050,0,U,49297,999,22792,.41579591E-4,.3E-6,0
ONEWEB-0372,2021-090V,2026-06-28T12:37:00.272640,13.20773095,.00020052,87.9196,272.1825,100.3560,259.7800,0,U,49298,999,23133,.50530089E-4,.34E-6,0
ONEWEB-0373,2021-090W,2026-06-28T15:02:39.744096,13.20771599,.0002073,87.9194,272.1625,98.4490,261.6878,0,U,49299,999,23253,-.37636142E-3,-.14E-5,0
ONEWEB-0374,2021-090X,2026-06-28T12:52:24.453696,13.14501159,.00015494,87.8971,287.4350,74.9423,285.1878,0,U,49300,999,22905,.15457573E-2,.586E-5,0
ONEWEB-0375,2021-090Y,2026-06-28T12:56:36.391776,13.20772667,.00020471,87.9195,272.1719,83.2886,276.8480,0,U,49301,999,23202,.6136177E-5,.15E-6,0
ONEWEB-0376,2021-090Z,2026-06-28T15:16:44.004288,13.19725586,.00018267,87.9185,302.6862,105.4194,254.7141,0,U,49302,999,22796,-.3107557E-3,-.111E-5,0
ONEWEB-0377,2021-090AA,2026-06-28T07:10:07.505472,13.20772698,.00021339,87.9197,272.2216,93.7138,266.4240,0,U,49303,999,23198,.73168519E-4,.43E-6,0
ONEWEB-0378,2021-090AB,2026-06-28T14:55:35.665248,13.20771095,.00019292,87.9192,272.1617,96.7981,263.3372,0,U,49304,999,23129,-.10977107E-3,-.32E-6,0
ONEWEB-0379,2021-090AC,2026-06-28T12:45:33.410016,13.14503316,.00018664,87.8973,287.4474,97.8603,262.2739,0,U,49305,999,22905,.12648083E-3,.6E-6,0
ONEWEB-0380,2021-090AD,2026-06-28T15:12:11.908224,13.19725643,.0002066,87.9178,302.6913,95.6076,264.5293,0,U,49306,999,22793,-.14849734E-3,-.47E-6,0
ONEWEB-0381,2021-090AE,2026-06-28T12:32:21.289632,13.20772845,.00019729,87.9198,272.1820,92.0564,268.0795,0,U,49307,999,23132,.25671313E-3,.117E-5,0
ONEWEB-0382,2021-090AF,2026-06-28T12:12:58.073472,13.20771598,.00018559,87.9196,272.1786,92.3719,267.7627,0,U,49308,999,23131,.77389815E-4,.44E-6,0
ONEWEB-0383,2021-090AG,2026-06-28T12:36:25.686720,13.14502077,.0001817,87.8975,287.4405,97.7351,262.3985,0,U,49309,999,22908,.43913568E-3,.176E-5,0
ONEWEB-0384,2021-090AH,2026-06-28T11:56:05.854272,13.20813394,.0001699,87.9197,272.2247,88.8026,271.3302,0,U,49310,999,23132,.11315309E-4,.18E-6,0
ONEWEB-0385,2021-090AJ,2026-06-28T12:03:15.282144,13.20773863,.00019368,87.9196,272.1852,94.5252,265.6102,0,U,49311,999,23129,.18828486E-3,.9E-6,0
ONEWEB-0386,2021-090AK,2026-06-28T12:27:30.779136,13.20772212,.00018423,87.9201,272.1734,94.3728,265.7616,0,U,49312,999,23131,-.35218184E-4,-.1E-7,0
ONEWEB-0387,2021-090AL,2026-06-28T12:05:40.966368,13.20773619,.00022363,87.9186,272.1970,91.3543,268.7847,0,U,49313,999,23131,.28004242E-3,.127E-5,0
ONEWEB-0388,2021-090AM,2026-06-28T15:05:22.289280,13.19726461,.00018521,87.9179,302.6903,96.5290,263.6053,0,U,49314,999,22792,.16089015E-3,.77E-6,0
ONEWEB-0389,2021-132A,2026-06-28T14:08:21.952608,13.17649819,.00020051,87.9133,3.5993,80.1378,279.9980,0,U,50469,999,21958,.15175987E-3,.72E-6,0
ONEWEB-0390,2021-132B,2026-06-28T14:10:47.788896,13.17649543,.00020532,87.9133,3.5999,92.8899,267.2467,0,U,50470,999,21958,.17892113E-3,.82E-6,0
ONEWEB-0391,2021-132C,2026-06-28T12:23:52.766016,13.17649544,.00025436,87.9134,3.6244,76.9359,283.2056,0,U,50471,999,21957,-.10399602E-4,.9E-7,0
ONEWEB-0392,2021-132D,2026-06-28T13:07:37.597152,13.17649637,.00020904,87.9141,3.5877,80.2368,279.9000,0,U,50472,999,21961,.1001104E-3,.52E-6,0
ONEWEB-0393,2021-132E,2026-06-28T12:32:22.109568,13.17650739,.00019579,87.9132,3.6085,84.8890,275.2465,0,U,50473,999,21960,.11758979E-3,.59E-6,0
ONEWEB-0394,2021-132F,2026-06-28T11:30:35.662752,13.18688241,.00017458,87.9178,333.1956,91.2536,268.8796,0,U,50474,999,22308,-.44025921E-4,-.4E-7,0
